CUBEBUG-2 (LO-74)       
1 39440U 13066AA  24189.41184649  .00002925  00000+0  34711-3 0  9993
2 39440  97.8136 132.6491 0068720 206.7335 153.0331 14.83579798571337
FUNCUBE-1 (AO-73)       
1 39444U 13066AE  24189.86564491  .00006660  00000+0  63990-3 0  9994
2 39444  97.7202 148.5502 0049642  73.1861 287.4795 14.92432239573780
UWE-3                   
1 39446U 13066AG  24189.85319641  .00003802  00000+0  42360-3 0  9993
2 39446  97.7818 139.1544 0061106 150.1564 210.3160 14.86301828572368
SPROUT                  
1 39770U 14029E   24190.14930073  .00232408  00000+0  31763-2 0  9995
2 39770  98.0064 345.1327 0004373 238.9936 121.0888 15.56634898550909
UNISAT-6                
1 40012U 14033C   24190.16686917  .00003344  00000+0  43826-3 0  9997
2 40012  97.7052 351.7399 0051484 235.9063 123.7259 14.80069693540943
DUCHIFAT-1              
1 40021U 14033M   24190.20098032  .00012052  00000+0  78816-3 0  9990
2 40021  98.0900 175.1206 0013650  39.4753 320.7465 15.07873617547292
QB50P1                  
1 40025U 14033R   24190.16453436  .00006970  00000+0  56298-3 0  9994
2 40025  98.0389 151.6085 0014941  93.9927 266.3003 15.00077301546531
KAITUO 1A               
1 40904U 15049F   24189.97143268  .00045814  00000+0  82151-3 0  9991
2 40904  97.4812 207.4700 0006152 212.3929 147.6945 15.49777437487663
XW-2C                   
1 40906U 15049H   24189.93536890  .00028594  00000+0  62893-3 0  9993
2 40906  97.4760 207.3037 0007265 207.2333 152.8535 15.43923577487673
XW-2D                   
1 40907U 15049J   24190.17113618  .00046442  00000+0  76296-3 0  9995
2 40907  97.4705 210.2976 0007201 188.9844 171.1280 15.52239878487956
LILACSAT-2              
1 40908U 15049K   24190.16938183  .00008571  00000+0  32760-3 0  9996
2 40908  97.5227 199.0348 0010106 275.8729  84.1357 15.26813443486695
XW-2B                   
1 40911U 15049N   24190.20838346  .00044828  00000+0  75934-3 0  9990
2 40911  97.4676 210.3989 0006965 191.0915 169.0184 15.51389914487824
LAPAN-A2                
1 40931U 15052B   24180.14795698  .00001574  00000+0  12542-3 0  9997
2 40931   5.9997 274.4192 0013395 238.9714 120.9097 14.77898591473081
FOX-1A (AO-85)          
1 40967U 15058D   24189.49852841  .00002803  00000+0  27002-3 0  9996
2 40967  64.7790 313.2199 0190889 297.7913  60.3957 14.82378900  8002
CAS-2T & KS-1Q          
1 41847U 16066G   24189.30183575  .00002452  00000+0  36248-3 0  9997
2 41847  98.4601 260.4518 0354812 116.7584 247.0371 14.41385729402391
ZHUHAI-1 02 (CAS-4B)    
1 42759U 17034B   24189.89073399  .00016110  00000+0  56811-3 0  9996
2 42759  43.0180 109.4829 0010373 130.5637 229.6120 15.28982893390578
ZHUHAI-1 01 (CAS-4A)    
1 42761U 17034D   24189.89054300  .00016263  00000+0  57141-3 0  9996
2 42761  43.0220 107.8196 0009548 145.0958 215.0522 15.29104505390587
RADFXSAT (FOX-1B)       
1 43017U 17073E   24189.62180662  .00005802  00000+0  36066-3 0  9996
2 43017  97.5756  64.3954 0208036 225.0550 133.3636 14.93775266358714
DIWATA-2B               
1 43678U 18084H   24190.15195072  .00001231  00000+0  11699-3 0  9990
2 43678  98.0739 348.7563 0008365 328.9161  31.1563 14.95404173310050
ES'HAIL 2               
1 43700U 18090A   24189.55507014  .00000141  00000+0  00000+0 0  9997
2 43700   0.0230  75.2978 0001981  75.7473   0.5752  1.00274259 20563
FOX-1CLIFF (AO-95)      
1 43770U 18099N   24189.70285459  .00007399  00000+0  50823-3 0  9990
2 43770  97.5445 247.1138 0012124 293.6674  66.3280 15.06190493305652
ITASAT                  
1 43786U 18099AE  24189.74516089  .00005475  00000+0  39354-3 0  9996
2 43786  97.5094 246.4323 0015164 282.5345  77.4185 15.04575532305663
JY1SAT (JO-97)          
1 43803U 18099AX  24189.41036685  .00007134  00000+0  46972-3 0  9997
2 43803  97.5189 247.6345 0008916 224.3426 135.7089 15.07803654305748
UWE-4                   
1 43880U 18111E   24189.27867352  .00008958  00000+0  55318-3 0  9993
2 43880  97.6105  94.8593 0014596 303.6802  56.3035 15.10034030302462
DUCHIFAT-3              
1 44854U 19089C   24189.66368835  .00014652  00000+0  72526-3 0  9993
2 44854  36.9570 284.6283 0005960 259.9449 100.0625 15.17149006251312
TIANYAN 01              
1 44881U 19093C   24190.21580272  .00001256  00000+0  15778-3 0  9994
2 44881  97.8281 266.5935 0013029 252.1169 107.8625 14.83823666246164
RS-44 & BREEZE-KM R/B   
1 44909U 19096E   24189.20441478  .00000030  00000+0  76795-4 0  9995
2 44909  82.5211  91.4777 0217791   4.7269 355.5819 12.79731107211533
BY70-2                  
1 45857U 20042B   24190.19288879  .00182654  00000+0  46624-2 0  9994
2 45857  97.9054 285.2358 0008778 192.7972 167.3051 15.38729329217771
SALSAT                  
1 46495U 20068K   24190.16835853  .00006737  00000+0  37975-3 0  9995
2 46495  97.8174 149.9933 0012176 237.2542 122.7515 15.13478519207484
UVSQ-SAT                
1 47438U 21006AB  24189.70566169  .00056531  00000+0  98265-3 0  9991
2 47438  97.3237 250.5039 0007531 140.6811 219.4989 15.50600658191919
LEDSAT                  
1 49069U 21073D   24190.18080986  .00015093  00000+0  59410-3 0  9996
2 49069  97.4367 261.1807 0018841 205.2088 154.8233 15.25557640159650
